CHINASAT 9B             
1 49125U 21080A   26197.62997220 -.00000322  00000+0  00000+0 0  9990
2 49125   0.0552 247.3151 0002211 258.9251 116.3848  1.00268045 17944
SHIJIAN-21 (SJ-21)      
1 49330U 21094A   26197.77611678 -.00000360  00000+0  00000+0 0  9991
2 49330   5.1813  60.9987 0051601 168.9556 111.9804  1.00277269  5655
SES-17                  
1 49332U 21095A   26197.48308649 -.00000283  00000+0  00000+0 0  9997
2 49332   0.0240  49.4027 0000824  65.8424 285.8713  1.00269357 18149
SYRACUSE 4A             
1 49333U 21095B   26196.49479853  .00000000  00000+0  00000+0 0  9990
2 49333   0.0256  65.0342 0001570  39.4977  52.4480  1.00269336 18236
QZS-1R (MICHIBIKI-1R)   
1 49336U 21096A   26195.57629205 -.00000304  00000+0  00000+0 0  9998
2 49336  37.5157  79.1769 0754906 272.2285 280.2291  1.00245239 17281
ZHONGXING-1D            
1 49505U 21114A   26197.72342503 -.00000347  00000+0  00000+0 0  9996
2 49505   0.0299 225.6342 0000552  22.6025  76.8977  1.00267936 17116
STPSAT-6                
1 49817U 21118A   26197.60417664 -.00000056  00000+0  00000+0 0  9991
2 49817   0.3949  85.0853 0000949 243.8402  71.2169  1.00270310 16861
EXPRESS AMU-7           
1 50001U 21123A   26197.79761902 -.00000253  00000+0  00000+0 0  9990
2 50001   0.0324 272.4544 0000404  28.5179  65.7883  1.00272307 16832
EXPRESS AMU-3           
1 50002U 21123B   26196.89825414  .00000000  00000+0  00000+0 0  9999
2 50002   0.0151 339.8402 0000397 352.0181  28.1395  1.00270956  7324
TIANLIAN 2-02           
1 50005U 21124A   26197.58892323 -.00000026  00000+0  00000+0 0  9992
2 50005   0.8754  85.6354 0001643 161.3689  70.3794  1.00270825 16917
TURKSAT 5B              
1 50212U 21126A   26197.56338402  .00000136  00000+0  00000+0 0  9996
2 50212   0.0703 340.4980 0002316  13.4804 185.2208  1.00270501 16595
INMARSAT 6-F1           
1 50319U 21128A   26197.57165693  .00000000  00000+0  00000+0 0  9997
2 50319   0.0171  49.7879 0000098 342.7630 191.4081  1.00268326 16554
SHIYAN-12 01 (SY-12 01) 
1 50321U 21129A   26197.75469796  .00000137  00000+0  00000+0 0  9993
2 50321   3.7490  79.5113 0002606 287.1397 235.6582  1.00052041 16790
SHIYAN-12 02 (SY-12 02) 
1 50322U 21129B   26197.75777715 -.00000374  00000+0  00000+0 0  9991
2 50322   3.7480  79.5110 0003112  69.2267 170.1657  1.00476521 16794
TJS-9                   
1 50574U 21135A   26197.60669749 -.00000309  00000+0  00000+0 0  9996
2 50574   0.0499 100.6066 0002141 330.3345 219.1523  1.00271810 16722
GOES 18                 
1 51850U 22021A   26197.63239183  .00000086  00000+0  00000+0 0  9998
2 51850   0.0178  93.6502 0000424  84.3084 207.1549  1.00271424  6880
ZHONGXING-6D            
1 52255U 22038A   26196.83674034 -.00000364  00000+0  00000+0 0  9995
2 52255   0.0285 209.4487 0000695 329.0620 181.4693  1.00271676 15718
NILESAT 301             
1 52817U 22061A   26197.41109236 -.00000069  00000+0  00000+0 0  9999
2 52817   0.0455   2.4849 0003529  78.2613 354.4988  1.00269664 15036
CMS-02 (GSAT-24)        
1 52903U 22067A   26197.57058682 -.00000175  00000+0  00000+0 0  9994
2 52903   0.0631 252.8227 0001096 109.1258 220.8382  1.00270011 14902
MEASAT 3D               
1 52904U 22067B   26197.60678859 -.00000252  00000+0  00000+0 0  9999
2 52904   0.0414 316.3470 0000553  65.3871 222.6505  1.00271008 14947
SES-22                  
1 52933U 22071A   26197.52750384  .00000094  00000+0  00000+0 0  9994
2 52933   0.0127  47.4133 0000854  60.4850 237.3359  1.00272159  7811
WFOV (USA 332)          
1 52940U 22073A   26197.57867696 -.00000375  00000+0  00000+0 0  9997
2 52940   3.7843  78.1552 0001437 215.9101 327.9069  1.00266564 14662
TIANLIAN 2-03           
1 53100U 22078A   26197.55714398  .00000061  00000+0  00000+0 0  9990
2 53100   0.7434  77.4967 0000830  12.9962  55.1057  1.00271979 14845
SBIRS GEO-6 (USA 336)   
1 53355U 22092A   26197.62100103 -.00000300  00000+0  00000+0 0  9996
2 53355   3.2088 317.9786 0001715 154.5070 184.5226  1.00271027 14521
EUTELSAT KONNECT VHTS   
1 53765U 22110A   26196.88655816  .00000006  00000+0  00000+0 0  9997
2 53765   0.0578  98.9002 0002837   1.1959 155.4770  1.00269204  7124
ZHONGXING-1E            
1 53813U 22112A   26197.61415403  .00000000  00000+0  00000+0 0  9995
2 53813   0.0188 235.8232 0000798  38.7241 322.4108  1.00270526 14146
SES-20                  
1 53960U 22123A   26197.53461054 -.00000111  00000+0  00000+0 0  9998
2 53960   0.0166  67.2328 0001814  26.5662 289.9173  1.00268986 13820
SES-21                  
1 53961U 22123B   26196.95884124  .00000000  00000+0  00000+0 0  9997
2 53961   0.0396  39.4342 0001009  72.1203  36.5029  1.00268712  7508
GALAXY 33 (G-33)        
1 54026U 22128A   26196.95832123  .00000068  00000+0  00000+0 0  9991
2 54026   0.0111  52.8487 0001813  67.7217  25.2247  1.00272587 14031
GALAXY 34 (G-34)        
1 54027U 22128B   26197.52949719  .00000048  00000+0  00000+0 0  9994
2 54027   0.0110  48.7415 0001564  70.2065 237.0257  1.00273857 14203
ANGOSAT 2               
1 54033U 22131A   26197.55957066  .00000125  00000+0  00000+0 0  9998
2 54033   0.0197 117.0759 0000204 233.5035 168.2418  1.00270888 13773
EUTELSAT HOTBIRD 13F    
1 54048U 22134A   26197.55766399  .00000076  00000+0  00000+0 0  9999
2 54048   0.0579 284.5217 0002013  72.9391 150.6949  1.00270318 13673
