OBJECT_NAME,OBJECT_ID,EPOCH,MEAN_MOTION,ECCENTRICITY,INCLINATION,RA_OF_ASC_NODE,ARG_OF_PERICENTER,MEAN_ANOMALY,EPHEMERIS_TYPE,CLASSIFICATION_TYPE,NORAD_CAT_ID,ELEMENT_SET_NO,REV_AT_EPOCH,BSTAR,MEAN_MOTION_DOT,MEAN_MOTION_DDOT
CHINASAT 9B,2021-080A,2026-07-16T15:07:09.598080,1.00268045,.00022118,0.0552,247.3151,258.9251,116.3848,0,U,49125,999,1794,0,-.322E-5,0
SHIJIAN-21 (SJ-21),2021-094A,2026-07-16T18:37:36.489792,1.00277269,.0051601,5.1813,60.9987,168.9556,111.9804,0,U,49330,999,565,0,-.36E-5,0
SES-17,2021-095A,2026-07-16T11:35:38.672736,1.00269357,.00008244,0.0240,49.4027,65.8424,285.8713,0,U,49332,999,1814,0,-.283E-5,0
SYRACUSE 4A,2021-095B,2026-07-15T11:52:30.592992,1.00269336,.000157,0.0256,65.0342,39.4977,52.4480,0,U,49333,999,1823,0,0,0
QZS-1R (MICHIBIKI-1R),2021-096A,2026-07-14T13:49:51.633120,1.00245239,.0754906,37.5157,79.1769,272.2285,280.2291,0,U,49336,999,1728,0,-.304E-5,0
ZHONGXING-1D,2021-114A,2026-07-16T17:21:43.922592,1.00267936,.0000552,0.0299,225.6342,22.6025,76.8977,0,U,49505,999,1711,0,-.347E-5,0
STPSAT-6,2021-118A,2026-07-16T14:30:00.861696,1.00270310,.00009491,0.3949,85.0853,243.8402,71.2169,0,U,49817,999,1686,0,-.56E-6,0
EXPRESS AMU-7,2021-123A,2026-07-16T19:08:34.283328,1.00272307,.0000404,0.0324,272.4544,28.5179,65.7883,0,U,50001,999,1683,0,-.253E-5,0
EXPRESS AMU-3,2021-123B,2026-07-15T21:33:29.157696,1.00270956,.0000397,0.0151,339.8402,352.0181,28.1395,0,U,50002,999,732,0,0,0
TIANLIAN 2-02,2021-124A,2026-07-16T14:08:02.967072,1.00270825,.00016431,0.8754,85.6354,161.3689,70.3794,0,U,50005,999,1691,0,-.26E-6,0
TURKSAT 5B,2021-126A,2026-07-16T13:31:16.379328,1.00270501,.00023162,0.0703,340.4980,13.4804,185.2208,0,U,50212,999,1659,0,.136E-5,0
INMARSAT 6-F1,2021-128A,2026-07-16T13:43:11.158752,1.00268326,.0000098,0.0171,49.7879,342.7630,191.4081,0,U,50319,999,1655,0,0,0
SHIYAN-12 01 (SY-12 01),2021-129A,2026-07-16T18:06:45.903744,1.00052041,.0002606,3.7490,79.5113,287.1397,235.6582,0,U,50321,999,1679,0,.137E-5,0
SHIYAN-12 02 (SY-12 02),2021-129B,2026-07-16T18:11:11.945760,1.00476521,.0003112,3.7480,79.5110,69.2267,170.1657,0,U,50322,999,1679,0,-.374E-5,0
TJS-9,2021-135A,2026-07-16T14:33:38.663136,1.00271810,.00021416,0.0499,100.6066,330.3345,219.1523,0,U,50574,999,1672,0,-.309E-5,0
GOES 18,2022-021A,2026-07-16T15:10:38.654112,1.00271424,.0000424,0.0178,93.6502,84.3084,207.1549,0,U,51850,999,688,0,.86E-6,0
ZHONGXING-6D,2022-038A,2026-07-15T20:04:54.365376,1.00271676,.0000695,0.0285,209.4487,329.0620,181.4693,0,U,52255,999,1571,0,-.364E-5,0
NILESAT 301,2022-061A,2026-07-16T09:51:58.379904,1.00269664,.00035296,0.0455,2.4849,78.2613,354.4988,0,U,52817,999,1503,0,-.69E-6,0
CMS-02 (GSAT-24),2022-067A,2026-07-16T13:41:38.701248,1.00270011,.00010967,0.0631,252.8227,109.1258,220.8382,0,U,52903,999,1490,0,-.175E-5,0
MEASAT 3D,2022-067B,2026-07-16T14:33:46.534176,1.00271008,.00005535,0.0414,316.3470,65.3871,222.6505,0,U,52904,999,1494,0,-.252E-5,0
SES-22,2022-071A,2026-07-16T12:39:36.331776,1.00272159,.00008548,0.0127,47.4133,60.4850,237.3359,0,U,52933,999,781,0,.94E-6,0
WFOV (USA 332),2022-073A,2026-07-16T13:53:17.689344,1.00266564,.00014371,3.7843,78.1552,215.9101,327.9069,0,U,52940,999,1466,0,-.375E-5,0
TIANLIAN 2-03,2022-078A,2026-07-16T13:22:17.239872,1.00271979,.00008303,0.7434,77.4967,12.9962,55.1057,0,U,53100,999,1484,0,.61E-6,0
SBIRS GEO-6 (USA 336),2022-092A,2026-07-16T14:54:14.488992,1.00271027,.00017155,3.2088,317.9786,154.5070,184.5226,0,U,53355,999,1452,0,-.3E-5,0
EUTELSAT KONNECT VHTS,2022-110A,2026-07-15T21:16:38.625024,1.00269204,.0002837,0.0578,98.9002,1.1959,155.4770,0,U,53765,999,712,0,.6E-7,0
ZHONGXING-1E,2022-112A,2026-07-16T14:44:22.908192,1.00270526,.00007983,0.0188,235.8232,38.7241,322.4108,0,U,53813,999,1414,0,0,0
SES-20,2022-123A,2026-07-16T12:49:50.350656,1.00268986,.00018146,0.0166,67.2328,26.5662,289.9173,0,U,53960,999,1382,0,-.111E-5,0
SES-21,2022-123B,2026-07-15T23:00:43.883136,1.00268712,.00010091,0.0396,39.4342,72.1203,36.5029,0,U,53961,999,750,0,0,0
GALAXY 33 (G-33),2022-128A,2026-07-15T22:59:58.954272,1.00272587,.00018137,0.0111,52.8487,67.7217,25.2247,0,U,54026,999,1403,0,.68E-6,0
GALAXY 34 (G-34),2022-128B,2026-07-16T12:42:28.557216,1.00273857,.00015644,0.0110,48.7415,70.2065,237.0257,0,U,54027,999,1420,0,.48E-6,0
ANGOSAT 2,2022-131A,2026-07-16T13:25:46.905024,1.00270888,.0000204,0.0197,117.0759,233.5035,168.2418,0,U,54033,999,1377,0,.125E-5,0
EUTELSAT HOTBIRD 13F,2022-134A,2026-07-16T13:23:02.168736,1.00270318,.0002013,0.0579,284.5217,72.9391,150.6949,0,U,54048,999,1367,0,.76E-6,0
